NORAD_CAT_ID,OBJECT_NAME,OBJECT_TYPE,EPOCH,MEAN_MOTION,ECCENTRICITY,INCLINATION,RA_OF_ASC_NODE,ARG_OF_PERICENTER,MEAN_ANOMALY,BSTAR,MEAN_MOTION_DOT,MEAN_MOTION_DDOT,TLE_LINE0,TLE_LINE1,TLE_LINE2,SEMIMAJOR_AXIS,PERIOD,APOGEE,PERIGEE,DECAYED
52124.0,STARLINK-3684,PAYLOAD,2022-09-13 16:00:00,15.08869838,0.0001665999999999,53.2196,33.9383,63.2653,45.2756,-0.0028162,-0.00044866,0.0,0 STARLINK-3684,1 52124U 22029AN  22256.66667824 -.00044866  00000-0 -28162-2 0  9992,2 52124  53.2196  33.9383 0001666  63.2653  45.2756 15.08869838 28606,6917.7890000000025,95.436,540.807,538.502,0.0
52124.0,STARLINK-3684,PAYLOAD,2022-09-13 22:00:00,15.08841773,0.0001536,53.2198,32.8162,57.9471,329.2917,-0.0021512,-0.00034363,0.0,0 STARLINK-3684,1 52124U 22029AN  22256.91667824 -.00034363  00000-0 -21512-2 0  9993,2 52124  53.2198  32.8162 0001536  57.9471 329.2917 15.08841773  1305,6917.875,95.437,540.803,538.677,0.0
52124.0,STARLINK-3684,PAYLOAD,2022-09-14 14:00:01,15.08847662,0.0001495,53.2202,29.8235,59.0765,351.316,-0.0016445999999999,-0.00026372,0.0,0 STARLINK-3684,1 52124U 22029AN  22257.58334491 -.00026372  00000-0 -16446-2 0  9999,2 52124  53.2202  29.8235 0001495  59.0765 351.3160 15.08847662  1300,6917.857,95.437,540.756,538.688,0.0
52124.0,STARLINK-3684,PAYLOAD,2022-09-14 22:00:00,15.08831991,0.0001475,53.2202,28.3276,51.4525,10.533,-0.00045992,-7.598e-05,0.0,0 STARLINK-3684,1 52124U 22029AN  22257.91667824 -.00007598  00000-0 -45992-3 0  9993,2 52124  53.2202  28.3276 0001475  51.4525  10.5330 15.08831991  1308,6917.905,95.438,540.79,538.749,0.0
52124.0,STARLINK-3684,PAYLOAD,2022-09-15 06:00:00,15.08806855,0.0001326,53.2206,26.8297,58.9811,14.5965,0.0039924999999999,0.0006377,0.0,0 STARLINK-3684,1 52124U 22029AN  22258.25001157  .00063770  00000-0  39925-2 0  9992,2 52124  53.2206  26.8297 0001326  58.9811  14.5965 15.08806855 28840,6917.982,95.44,540.764,538.929,0.0
52124.0,STARLINK-3684,PAYLOAD,2022-09-15 14:00:01,15.08871795,0.0001545,53.2207,25.335,54.7528,30.406,-0.0026996,-0.00043033,0.0,0 STARLINK-3684,1 52124U 22029AN  22258.58334491 -.00043033  00000-0 -26996-2 0  9994,2 52124  53.2207  25.3350 0001545  54.7528  30.4060 15.08871795  1307,6917.783,95.436,540.717,538.5790000000002,0.0
52124.0,STARLINK-3684,PAYLOAD,2022-09-15 16:00:00,15.08861408,0.0001603,53.2207,24.9613,53.5696,124.4961,-0.0018863,-0.00030201,0.0,0 STARLINK-3684,1 52124U 22029AN  22258.66667824 -.00030201  00000-0 -18863-2 0  9999,2 52124  53.2207  24.9613 0001603  53.5696 124.4961 15.08861408  1306,6917.815,95.436,540.789,538.571,0.0
52124.0,STARLINK-3684,PAYLOAD,2022-09-16 11:52:52,15.08832082,0.0001401,53.2221,21.24,85.3623,274.7529,4.4105e-05,4.14e-06,0.0,0 STARLINK-3684,1 52124U 22029AN  22259.49505707  .00000414  00000-0  44105-4 0  9993,2 52124  53.2221  21.2400 0001401  85.3623 274.7529 15.08832082 29030,6917.905,95.438,540.739,538.8,0.0
52124.0,STARLINK-3684,PAYLOAD,2022-09-16 16:39:02,15.08832937,0.0001330999999999,53.2217,20.3486,72.2625,287.8512,4.9446e-05,4.99e-06,0.0,0 STARLINK-3684,1 52124U 22029AN  22259.69377758  .00000499  00000-0  49446-4 0  9994,2 52124  53.2217  20.3486 0001331  72.2625 287.8512 15.08832937 29067,6917.901999999999,95.438,540.688,538.846,0.0
52124.0,STARLINK-3684,PAYLOAD,2022-09-17 11:43:40,15.08832496,0.0001426,53.222,16.7807,72.793,287.3218,-2.8816e-05,-7.46e-06,0.0,0 STARLINK-3684,1 52124U 22029AN  22260.48866496 -.00000746  00000-0 -28816-4 0  9990,2 52124  53.2220  16.7807 0001426  72.7930 287.3218 15.08832496 29187,6917.903,95.438,540.755,538.7819999999998,0.0
52124.0,STARLINK-3684,PAYLOAD,2022-09-17 13:19:03,15.08834836,0.000154,53.2214,16.4842,69.7627,290.3531,-6.3658e-06,-3.89e-06,0.0,0 STARLINK-3684,1 52124U 22029AN  22260.55490305 -.00000389  00000-0 -63658-5 0  9997,2 52124  53.2214  16.4842 0001540  69.7627 290.3531 15.08834836 29195,6917.896,95.438,540.827,538.696,0.0
52124.0,STARLINK-3684,PAYLOAD,2022-09-18 13:09:50,15.0883962,0.0001551999999999,53.2216,12.0236,58.4525,301.6618,0.00012591,1.716e-05,0.0,0 STARLINK-3684,1 52124U 22029AN  22261.54849949  .00001716  00000-0  12591-3 0  9990,2 52124  53.2216  12.0236 0001552  58.4525 301.6618 15.08839620 29346,6917.882,95.438,540.82,538.673,0.0
52124.0,STARLINK-3684,PAYLOAD,2022-09-18 17:56:00,15.08836406,0.0001561999999999,53.2214,11.1327,57.9992,302.1152,9.6832e-05,1.253e-05,0.0,0 STARLINK-3684,1 52124U 22029AN  22261.74722264  .00001253  00000-0  96832-4 0  9999,2 52124  53.2214  11.1327 0001562  57.9992 302.1152 15.08836406 29379,6917.891,95.438,540.837,538.6759999999998,0.0
52124.0,STARLINK-3684,PAYLOAD,2022-09-19 00:17:33,15.08830072,0.0001567,53.2216,9.9428,58.3957,301.7188,7.355899999999999e-05,8.83e-06,0.0,0 STARLINK-3684,1 52124U 22029AN  22262.01218859  .00000883  00000-0  73559-4 0  9999,2 52124  53.2216   9.9428 0001567  58.3957 301.7188 15.08830072 29411,6917.911,95.438,540.86,538.692,0.0
52124.0,STARLINK-3684,PAYLOAD,2022-09-19 11:25:14,15.08835949,0.0001491,53.2202,7.8612,50.2364,309.876,4.634600000000001e-05,4.5e-06,0.0,0 STARLINK-3684,1 52124U 22029AN  22262.47586705  .00000450  00000-0  46346-4 0  9991,2 52124  53.2202   7.8612 0001491  50.2364 309.8760 15.08835949 29487,6917.893,95.438,540.789,538.726,0.0
52124.0,STARLINK-3684,PAYLOAD,2022-09-19 16:11:24,15.08836458,0.0001339,53.2224,6.9695,56.4832,303.6288,2.7792e-05,1.54e-06,0.0,0 STARLINK-3684,1 52124U 22029AN  22262.67458775  .00000154  00000-0  27792-4 0  9993,2 52124  53.2224   6.9695 0001339  56.4832 303.6288 15.08836458 29518,6917.891,95.438,540.683,538.83,0.0
52124.0,STARLINK-3684,PAYLOAD,2022-09-20 00:08:19,15.088382199999998,0.0001356,53.2226,5.4829,52.0249,308.0866,5.859600000000001e-05,6.45e-06,0.0,0 STARLINK-3684,1 52124U 22029AN  22263.00578625  .00000645  00000-0  58596-4 0  9999,2 52124  53.2226   5.4829 0001356  52.0249 308.0866 15.08838220 29561,6917.886,95.438,540.689,538.813,0.0
52124.0,STARLINK-3684,PAYLOAD,2022-09-20 12:51:25,15.08836794,0.0001422,53.223,3.1042,52.2259,307.8862,-3.43e-05,-8.34e-06,0.0,0 STARLINK-3684,1 52124U 22029AN  22263.53571089 -.00000834  00000-0 -34300-4 0  9993,2 52124  53.2230   3.1042 0001422  52.2259 307.8862 15.08836794 29641,6917.89,95.438,540.739,538.771,0.0
52124.0,STARLINK-3684,PAYLOAD,2022-09-21 06:20:39,15.08837977,0.0001450999999999,53.2232,359.8348,49.8798,310.2321,6.382399999999999e-05,7.28e-06,0.0,0 STARLINK-3684,1 52124U 22029AN  22264.26434802  .00000728  00000-0  63824-4 0  9998,2 52124  53.2232 359.8348 0001451  49.8798 310.2321 15.08837977 29759,6917.887,95.438,540.755,538.748,0.0
52124.0,STARLINK-3684,PAYLOAD,2022-09-21 11:06:48,15.08851405,0.0001737,53.2209,358.9417,42.7791,317.3336,-0.00014583,-2.609e-05,0.0,0 STARLINK-3684,1 52124U 22029AN  22264.46306513 -.00002609  00000-0 -14583-3 0  9996,2 52124  53.2209 358.9417 0001737  42.7791 317.3336 15.08851405 29781,6917.846,95.437,540.9119999999998,538.509,0.0
52124.0,STARLINK-3684,PAYLOAD,2022-09-21 23:49:54,15.08834808,0.0001694,53.2215,356.5632,46.2697,313.8435,-1.9475e-05,-5.98e-06,0.0,0 STARLINK-3684,1 52124U 22029AN  22264.99299442 -.00000598  00000-0 -19475-4 0  9997,2 52124  53.2215 356.5632 0001694  46.2697 313.8435 15.08834808 29865,6917.896,95.438,540.933,538.589,0.0
52124.0,STARLINK-3684,PAYLOAD,2022-09-22 12:32:59,15.08837872,0.0001838,53.2209,354.1844,53.2201,306.8959,5.1084e-05,5.25e-06,0.0,0 STARLINK-3684,1 52124U 22029AN  22265.52291107  .00000525  00000-0  51084-4 0  9997,2 52124  53.2209 354.1844 0001838  53.2201 306.8959 15.08837872 29942,6917.887,95.438,541.023,538.48,0.0
52124.0,STARLINK-3684,PAYLOAD,2022-09-23 12:23:45,15.08846986,0.0001662,53.2208,349.7247,38.1955,321.9154,0.00011016,1.466e-05,0.0,0 STARLINK-3684,1 52124U 22029AN  22266.51650460  .00001466  00000-0  11016-3 0  9993,2 52124  53.2208 349.7247 0001662  38.1955 321.9154 15.08846986 30090,6917.859,95.437,540.874,538.5740000000002,0.0
52124.0,STARLINK-3684,PAYLOAD,2022-09-23 13:59:09,15.08839221,0.0001902,53.2214,349.4291,34.3483,325.7632,9.8318e-05,1.277e-05,0.0,0 STARLINK-3684,1 52124U 22029AN  22266.58274953  .00001277  00000-0  98318-4 0  9990,2 52124  53.2214 349.4291 0001902  34.3483 325.7632 15.08839221 30103,6917.8830000000025,95.438,541.064,538.432,0.0
52124.0,STARLINK-3684,PAYLOAD,2022-09-24 12:14:33,15.08836814,0.0001742,53.2206,345.2659,43.4619,316.6511,1.5639e-05,-3.9e-07,0.0,0 STARLINK-3684,1 52124U 22029AN  22267.51011551 -.00000039  00000-0  15639-4 0  9998,2 52124  53.2206 345.2659 0001742  43.4619 316.6511 15.08836814 30245,6917.89,95.438,540.96,538.55,0.0
52124.0,STARLINK-3684,PAYLOAD,2022-09-24 21:46:52,15.08843822,0.000174,53.2206,343.4817,44.2035,315.9096,6.4973e-05,7.46e-06,0.0,0 STARLINK-3684,1 52124U 22029AN  22267.90754947  .00000746  00000-0  64973-4 0  9993,2 52124  53.2206 343.4817 0001740  44.2035 315.9096 15.08843822 30304,6917.869000000002,95.437,540.937,538.53,0.0
52124.0,STARLINK-3684,PAYLOAD,2022-09-25 12:05:20,15.08846439,0.0001769,53.2204,340.8059,44.8484,315.2651,-1.4175e-05,-5.14e-06,0.0,0 STARLINK-3684,1 52124U 22029AN  22268.50371032 -.00000514  00000-0 -14175-4 0  9994,2 52124  53.2204 340.8059 0001769  44.8484 315.2651 15.08846439 30392,6917.861,95.437,540.9490000000002,538.502,0.0
52124.0,STARLINK-3684,PAYLOAD,2022-09-26 08:45:22,15.08828377,0.0001833,53.22,336.9408,50.3279,309.7874,-4.3827e-06,-3.58e-06,0.0,0 STARLINK-3684,1 52124U 22029AN  22269.36484374 -.00000358  00000-0 -43827-5 0  9996,2 52124  53.2200 336.9408 0001833  50.3279 309.7874 15.08828377 30529,6917.916,95.438,541.049,538.513,0.0
52124.0,STARLINK-3684,PAYLOAD,2022-09-26 21:28:27,15.08830726,0.0001942,53.2197,334.5612,47.5844,312.5312,-1.9212e-05,-5.94e-06,0.0,0 STARLINK-3684,1 52124U 22029AN  22269.89476616 -.00000594  00000-0 -19212-4 0  9996,2 52124  53.2197 334.5612 0001942  47.5844 312.5312 15.08830726 30601,6917.909000000002,95.438,541.117,538.43,0.0
